LUCH 5V (SDCM/PRN 141)  
1 39727U 14023A   23029.23557792 -.00000269  00000+0  00000+0 0  9990
2 39727   2.0446  77.3535 0002803 246.2832 344.1180  1.00272807550127
GPS BIIF-6  (PRN 06)    
1 39741U 14026A   23028.98125369 -.00000083  00000+0  00000+0 0  9995
2 39741  56.6492  19.4593 0030668 307.8672  51.8665  2.00572728 63750
COSMOS 2500 (755)       
1 40001U 14032A   23028.66419927 -.00000072  00000+0  00000+0 0  9992
2 40001  65.7557 355.4410 0006662 225.2966 266.6648  2.13102395 67126
GPS BIIF-7  (PRN 09)    
1 40105U 14045A   23027.57755292  .00000001  00000+0  00000+0 0  9999
2 40105  54.7471 137.8532 0023385 114.6236 245.6140  2.00562192 61278
GSAT0201 (PRN E18)      
1 40128U 14050A   23026.35458151 -.00000108  00000+0  00000+0 0  9998
2 40128  50.1198 323.3966 1614235 132.0218 242.9061  1.85519228 57290
GSAT0202 (PRN E14)      
1 40129U 14050B   23027.69268496 -.00000117  00000+0  00000+0 0  9998
2 40129  50.1424 322.4097 1610123 132.9491 241.7422  1.85520003 57541
IRNSS-1C                
1 40269U 14061A   23029.07137566 -.00000163  00000+0  00000+0 0  9993
2 40269   3.4558 119.9147 0016666   6.0392 110.7639  1.00273995 30449
GPS BIIF-8  (PRN 03)    
1 40294U 14068A   23028.94422351 -.00000066  00000+0  00000+0 0  9994
2 40294  55.9935  79.0410 0042409  56.8828 303.5818  2.00557078 60417
COSMOS 2501 (702K)      
1 40315U 14075A   23028.50287177  .00000081  00000+0  00000+0 0  9999
2 40315  63.6585 233.2982 0017009 204.5211 332.7599  2.13101378 63529
GPS BIIF-9  (PRN 26)    
1 40534U 15013A   23027.08524815  .00000014  00000+0  00000+0 0  9996
2 40534  53.5722 255.4243 0077067  23.6366 336.7744  2.00568132 57014
GSAT0203 (PRN E26)      
1 40544U 15017A   23025.93384439 -.00000084  00000+0  00000+0 0  9997
2 40544  56.8609  15.2970 0004962 272.5631  87.3799  1.70475741 48094
GSAT0204 (PRN E22)      
1 40545U 15017B   23029.12004013 -.00000087  00000+0  00000+0 0  9993
2 40545  56.8679  15.2234 0004333 264.0755  95.8763  1.70475519 48818
IRNSS-1D                
1 40547U 15018A   23029.06716046 -.00000261  00000+0  00000+0 0  9999
2 40547  28.5101 261.3420 0018236 177.4463 185.2750  1.00268819 28866
BEIDOU 17 (C31)         
1 40549U 15019A   23028.76230028 -.00000158  00000+0  00000+0 0  9994
2 40549  51.4945 310.1305 0036225 200.0873 341.7602  1.00249985 28699
GPS BIIF-10 (PRN 08)    
1 40730U 15033A   23028.74007933 -.00000094  00000+0  00000+0 0  9996
2 40730  55.0258 317.5864 0081836  10.0407 350.1391  2.00566431 55237
BEIDOU 18 (C57)         
1 40748U 15037A   23028.99152940 -.00000111  00000+0  00000+0 0  9995
2 40748  55.7770 344.1416 0004663 344.6956 192.6322  1.86233285 51116
BEIDOU 19 (C58)         
1 40749U 15037B   23028.79078856 -.00000111  00000+0  00000+0 0  9997
2 40749  55.7816 344.1394 0007169 318.0029 218.7676  1.86232995 51101
GSAT0205 (PRN E24)      
1 40889U 15045A   23026.54190229  .00000026  00000+0  00000+0 0  9995
2 40889  55.4845 255.7992 0006383  28.2266 331.8728  1.70473064 45910
GSAT0206 (PRN E30)      
1 40890U 15045B   23027.93578451  .00000030  00000+0  00000+0 0  9993
2 40890  55.4828 255.7562 0004480  24.5329 335.5504  1.70473249 45964
BEIDOU 20 (C18)         
1 40938U 15053A   23029.19367286 -.00000114  00000+0  00000+0 0  9991
2 40938  51.1457 273.2698 0043365 193.2195 186.6497  1.00287401 26964
GPS BIIF-11 (PRN 10)    
1 41019U 15062A   23028.29522037 -.00000064  00000+0  00000+0 0  9993
2 41019  55.9793  78.9133 0085689 220.6141 138.8007  2.00562386 53049
GSAT-15 (GAGAN/PRN 139) 
1 41028U 15065A   23029.28660572 -.00000256  00000+0  00000+0 0  9996
2 41028   0.0518 260.3501 0001486  14.6128  49.9501  1.00273224 26488
GSAT0209 (PRN E09)      
1 41174U 15079A   23026.34857190 -.00000004  00000+0  00000+0 0  9992
2 41174  55.2238 135.2746 0002639 304.9366  55.0286  1.70474746 43679
GSAT0208 (PRN E08)      
1 41175U 15079B   23028.91441539 -.00000022  00000+0  00000+0 0  9994
2 41175  55.2225 135.2024 0003057 297.2651  62.6911  1.70474429 44297
IRNSS-1E                
1 41241U 16003A   23028.57491767 -.00000315  00000+0  00000+0 0  9991
2 41241  30.4826  81.1341 0021631 189.5467 175.5039  1.00266255 25697
GPS BIIF-12 (PRN 32)    
1 41328U 16007A   23028.38202064 -.00000007  00000+0  00000+0 0  9998
2 41328  54.9584 138.5465 0067121 231.3529 128.0375  2.00560056 51050
COSMOS 2514 (751)       
1 41330U 16008A   23028.72118957 -.00000073  00000+0  00000+0 0  9990
2 41330  65.5549 355.0748 0010215 226.4718 133.4404  2.13102610 54293
IRNSS-1F                
1 41384U 16015A   23028.84613830  .00000159  00000+0  00000+0 0  9994
2 41384   2.5186 141.4793 0023567 182.3603 140.9703  1.00269479 25277
BEIDOU IGSO-6 (C13)     
1 41434U 16021A   23028.33136741 -.00000156  00000+0  00000+0 0  9990
2 41434  58.4275  50.5137 0049783 223.8995  68.2742  1.00282071 25084
IRNSS-1G                
1 41469U 16027A   23029.17202191 -.00000334  00000+0  00000+0 0  9998
2 41469   2.4284 143.7004 0003954 265.3114 270.6189  1.00273793 24784
GSAT0211 (PRN E02)      
1 41549U 16030A   23029.03463177  .00000036  00000+0  00000+0 0  9997
2 41549  55.6284 255.6827 0004524   1.4126 358.6521  1.70473342 41599
GSAT0210 (PRN E01)      
1 41550U 16030B   23026.98007793  .00000027  00000+0  00000+0 0  9998
2 41550  55.6294 255.7408 0002740 341.4374  18.6161  1.70474750 41573
COSMOS 2516 (753)       
1 41554U 16032A   23028.84198835  .00000084  00000+0  00000+0 0  9992
2 41554  63.8852 233.6255 0013940 212.0893 147.8705  2.13106466 51907
BEIDOU-2 G7 (C03)       
1 41586U 16037A   23029.56090795 -.00000353  00000+0  00000+0 0  9998
2 41586   1.8879  70.5274 0008188 347.3980  23.0415  1.00268392 24409
E 117 W B (WAAS/PRN 131)
1 41589U 16038B   23029.51038095 -.00000010  00000+0  00000+0 0  9992
2 41589   0.0102 211.8242 0000189 166.9725 176.4391  1.00273638 24328
GSAT0207 (PRN E07)      
1 41859U 16069A   23028.40232163 -.00000018  00000+0  00000+0 0  9993
2 41859  54.8855 135.3438 0003222 283.8369  76.1154  1.70474707 38551
GSAT0212 (PRN E03)      
1 41860U 16069B   23027.66976215 -.00000012  00000+0  00000+0 0  9999
2 41860  54.8829 135.3614 0001399 323.3084  36.6715  1.70473507 38570
GSAT0213 (PRN E04)      
1 41861U 16069C   23026.86181374 -.00000007  00000+0  00000+0 0  9999
2 41861  54.8851 135.3894 0003479 255.7791 104.1723  1.70473425 38423
GSAT0214 (PRN E05)      
1 41862U 16069D   23028.18214210 -.00000016  00000+0  00000+0 0  9993
2 41862  54.8837 135.3471 0002506 255.0001 104.9609  1.70473559 38571
SES-15 (WAAS/PRN 133)   
1 42709U 17026A   23029.50006868  .00000062  00000+0  00000+0 0  9993
2 42709   0.0184   8.7922 0000403 282.0803 248.4552  1.00269778 21806
QZS-2 (QZSS/PRN 184)    
1 42738U 17028A   23028.50749153 -.00000140  00000+0  00000+0 0  9995
2 42738  41.3982 260.9760 0751750 269.8909 280.7502  1.00274736 20759
QZS-3 (QZSS/PRN 189)    
1 42917U 17048A   23028.89892936 -.00000347  00000+0  00000+0 0  9995
2 42917   0.0723 227.9811 0001919  92.0797 258.4566  1.00273284 19879
COSMOS 2522 (752)       
1 42939U 17055A   23029.27216177  .00000089  00000+0  00000+0 0  9999
2 42939  64.1196 234.0728 0005133 239.2064 303.8564  2.13102015 41661
QZS-4 (QZSS/PRN 185)    
1 42965U 17062A   23028.79349068 -.00000353  00000+0  00000+0 0  9993
2 42965  40.7087 359.2232 0750274 268.9258 282.8896  1.00293788 19422
BEIDOU-3 M1 (C19)       
1 43001U 17069A   23028.16323310 -.00000054  00000+0  00000+0 0  9993
2 43001  55.6918 104.1562 0009511 285.7243 138.8727  1.86231576 35586
BEIDOU-3 M2 (C20)       
1 43002U 17069B   23028.44069485 -.00000057  00000+0  00000+0 0  9998
2 43002  55.6906 104.1834 0007707 306.2448 347.1165  1.86231056 35570
GSAT0215 (PRN E21)      
1 43055U 17079A   23028.08570403  .00000031  00000+0  00000+0 0  9995
2 43055  55.6055 255.5380 0001948 345.6733  14.3832  1.70473903 31915
GSAT0216 (PRN E25)      
1 43056U 17079B   23028.96435618  .00000036  00000+0  00000+0 0  9996
2 43056  55.6051 255.5135 0003207 318.0665  41.9720  1.70474062 31917
GSAT0217 (PRN E27)      
1 43057U 17079C   23028.01149800  .00000031  00000+0  00000+0 0  9993
2 43057  55.6039 255.5392 0003415 340.4381  19.6108  1.70473961 31913
GSAT0218 (PRN E31)      
1 43058U 17079D   23028.81808556  .00000035  00000+0  00000+0 0  9996
2 43058  55.6033 255.5144 0003509 308.1719  51.8592  1.70474134 31922
BEIDOU-3 M3 (C27)       
1 43107U 18003A   23028.55882706 -.00000110  00000+0  00000+0 0  9994
2 43107  55.2293 344.9740 0004079  42.7729 136.3088  1.86232373 34343
BEIDOU-3 M4 (C28)       
1 43108U 18003B   23028.48466889 -.00000110  00000+0  00000+0 0  9997
2 43108  55.2246 344.9647 0004094 271.6983 260.2920  1.86230841 34340
BEIDOU-3 M5 (C21)       
1 43207U 18018A   23027.59779367 -.00000047  00000+0  00000+0 0  9991
2 43207  55.6502 104.2817 0004548 329.7943  30.2209  1.86231468 33711
BEIDOU-3 M6 (C22)       
1 43208U 18018B   23029.27526077 -.00000064  00000+0  00000+0 0  9996
2 43208  55.6506 104.2304 0007932 294.7279  65.2277  1.86231628 33744
BEIDOU-3 M7 (C29)       
1 43245U 18029A   23028.59817387 -.00000111  00000+0  00000+0 0  9993
2 43245  55.1352 342.7249 0001630 299.8168 176.2573  1.86232548 32886
BEIDOU-3 M8 (C30)       
1 43246U 18029B   23028.41137427 -.00000110  00000+0  10000-3 0  9999
2 43246  55.1320 342.7609 0004992 347.9265  49.6122  1.86232365 32878
IRNSS-1I                
1 43286U 18035A   23029.24493729  .00000070  00000+0  00000+0 0  9991
2 43286  28.7575  93.6954 0021769 186.4694 351.2723  1.00276002 17681
COSMOS 2527 (756)       
1 43508U 18053A   23028.59526646 -.00000034  00000+0  00000+0 0  9991
2 43508  65.0256 115.2880 0008865 226.5819 189.1614  2.13102516 35943
BEIDOU IGSO-7 (C16)     
1 43539U 18057A   23024.34297848 -.00000114  00000+0  00000+0 0  9996
2 43539  55.0983 173.7753 0052320 224.9950 316.9830  1.00242822 16729
GSAT0221 (PRN E15)      
1 43564U 18060A   23028.71653071 -.00000086  00000+0  00000+0 0  9995
2 43564  57.2431  15.0939 0005612 286.6627  73.2764  1.70475684 28117
